{
  "type": "FeatureCollection",
  "features": [
    {
      "type": "Feature",
      "properties": {
        "norad_id": 37867,
        "name": "COSMOS 2476 (744)",
        "group": "glo-ops",
        "lat": -61.09300255641633,
        "lon": -44.31707166389967,
        "alt_km": 19077.835395423564,
        "timestamp": "2025-12-22T20:43:46.109736+00:00",
        "meta_object_name": "COSMOS 2476 (744)",
        "meta_object_id": "2011-064A",
        "meta_epoch": "2025-12-19T06:05:26.552256",
        "meta_mean_motion": 2.13103916,
        "meta_eccentricity": 0.0024321,
        "meta_inclination": 65.1662,
        "meta_ra_of_asc_node": 78.9509,
        "meta_arg_of_pericenter": 234.6548,
        "meta_mean_anomaly": 130.4776,
        "meta_ephemeris_type": 0,
        "meta_classification_type": "U",
        "meta_norad_cat_id": 37867,
        "meta_element_set_no": 999,
        "meta_rev_at_epoch": 10993,
        "meta_bstar": 0,
        "meta_mean_motion_dot": -3e-07,
        "meta_mean_motion_ddot": 0,
        "tle_line1": "1 37867U 11064A   25353.25377954 -.00000030  00000+0  00000+0 0  9995",
        "tle_line2": "2 37867  65.1662  78.9509 0024321 234.6548 130.4776  2.13103916109937"
      },
      "geometry": {
        "type": "Point",
        "coordinates": [
          -44.31707166389967,
          -61.09300255641633
        ]
      }
    },
    {
      "type": "Feature",
      "properties": {
        "norad_id": 37868,
        "name": "COSMOS 2477 (745)",
        "group": "glo-ops",
        "lat": 61.43825828484413,
        "lon": 137.0221485349266,
        "alt_km": 19174.819990920896,
        "timestamp": "2025-12-22T20:43:46.109748+00:00",
        "meta_object_name": "COSMOS 2477 (745)",
        "meta_object_id": "2011-064B",
        "meta_epoch": "2025-12-22T10:30:41.821056",
        "meta_mean_motion": 2.1310305,
        "meta_eccentricity": 0.00215605,
        "meta_inclination": 65.1736,
        "meta_ra_of_asc_node": 78.921,
        "meta_arg_of_pericenter": 235.3633,
        "meta_mean_anomaly": 233.4933,
        "meta_ephemeris_type": 0,
        "meta_classification_type": "U",
        "meta_norad_cat_id": 37868,
        "meta_element_set_no": 999,
        "meta_rev_at_epoch": 10999,
        "meta_bstar": 0,
        "meta_mean_motion_dot": -3e-08,
        "meta_mean_motion_ddot": 0,
        "tle_line1": "1 37868U 11064B   25356.43798404 -.00000003  00000+0  00000+0 0  9996",
        "tle_line2": "2 37868  65.1736  78.9210 0021560 235.3633 233.4933  2.13103050109998"
      },
      "geometry": {
        "type": "Point",
        "coordinates": [
          137.0221485349266,
          61.43825828484413
        ]
      }
    },
    {
      "type": "Feature",
      "properties": {
        "norad_id": 37869,
        "name": "COSMOS 2475 (743)",
        "group": "glo-ops",
        "lat": 28.330107170325643,
        "lon": 93.36336188708924,
        "alt_km": 19180.716324181376,
        "timestamp": "2025-12-22T20:43:46.109759+00:00",
        "meta_object_name": "COSMOS 2475 (743)",
        "meta_object_id": "2011-064C",
        "meta_epoch": "2025-12-22T12:35:30.005376",
        "meta_mean_motion": 2.13101682,
        "meta_eccentricity": 0.00266922,
        "meta_inclination": 65.1807,
        "meta_ra_of_asc_node": 78.9382,
        "meta_arg_of_pericenter": 249.0834,
        "meta_mean_anomaly": 242.1615,
        "meta_ephemeris_type": 0,
        "meta_classification_type": "U",
        "meta_norad_cat_id": 37869,
        "meta_element_set_no": 999,
        "meta_rev_at_epoch": 11000,
        "meta_bstar": 0,
        "meta_mean_motion_dot": -2e-08,
        "meta_mean_motion_ddot": 0,
        "tle_line1": "1 37869U 11064C   25356.52465284 -.00000002  00000+0  00000+0 0  9993",
        "tle_line2": "2 37869  65.1807  78.9382 0026692 249.0834 242.1615  2.13101682110001"
      },
      "geometry": {
        "type": "Point",
        "coordinates": [
          93.36336188708924,
          28.330107170325643
        ]
      }
    },
    {
      "type": "Feature",
      "properties": {
        "norad_id": 39155,
        "name": "COSMOS 2485 (747)",
        "group": "glo-ops",
        "lat": -49.57058313014165,
        "lon": 46.934765729373815,
        "alt_km": 19116.668862039623,
        "timestamp": "2025-12-22T20:43:46.109770+00:00",
        "meta_object_name": "COSMOS 2485 (747)",
        "meta_object_id": "2013-019A",
        "meta_epoch": "2025-12-22T11:14:56.161248",
        "meta_mean_motion": 2.13103249,
        "meta_eccentricity": 0.00249404,
        "meta_inclination": 65.3184,
        "meta_ra_of_asc_node": 79.5401,
        "meta_arg_of_pericenter": 230.2893,
        "meta_mean_anomaly": 129.5337,
        "meta_ephemeris_type": 0,
        "meta_classification_type": "U",
        "meta_norad_cat_id": 39155,
        "meta_element_set_no": 999,
        "meta_rev_at_epoch": 9851,
        "meta_bstar": 0,
        "meta_mean_motion_dot": -2e-08,
        "meta_mean_motion_ddot": 0,
        "tle_line1": "1 39155U 13019A   25356.46870557 -.00000002  00000+0  00000+0 0  9991",
        "tle_line2": "2 39155  65.3184  79.5401 0024940 230.2893 129.5337  2.13103249 98512"
      },
      "geometry": {
        "type": "Point",
        "coordinates": [
          46.934765729373815,
          -49.57058313014165
        ]
      }
    },
    {
      "type": "Feature",
      "properties": {
        "norad_id": 39620,
        "name": "COSMOS 2492 (754)",
        "group": "glo-ops",
        "lat": -22.815108228180858,
        "lon": -51.19299184734938,
        "alt_km": 19099.252039160594,
        "timestamp": "2025-12-22T20:43:46.109781+00:00",
        "meta_object_name": "COSMOS 2492 (754)",
        "meta_object_id": "2014-012A",
        "meta_epoch": "2025-12-21T22:59:34.433088",
        "meta_mean_motion": 2.13103396,
        "meta_eccentricity": 0.00142426,
        "meta_inclination": 65.4026,
        "meta_ra_of_asc_node": 319.9579,
        "meta_arg_of_pericenter": 313.3292,
        "meta_mean_anomaly": 46.5466,
        "meta_ephemeris_type": 0,
        "meta_classification_type": "U",
        "meta_norad_cat_id": 39620,
        "meta_element_set_no": 999,
        "meta_rev_at_epoch": 9146,
        "meta_bstar": 0,
        "meta_mean_motion_dot": -4.2e-07,
        "meta_mean_motion_ddot": 0,
        "tle_line1": "1 39620U 14012A   25355.95803742 -.00000042  00000+0  00000+0 0  9991",
        "tle_line2": "2 39620  65.4026 319.9579 0014242 313.3292  46.5466  2.13103396 91463"
      },
      "geometry": {
        "type": "Point",
        "coordinates": [
          -51.19299184734938,
          -22.815108228180858
        ]
      }
    },
    {
      "type": "Feature",
      "properties": {
        "norad_id": 40001,
        "name": "COSMOS 2500 (755)",
        "group": "glo-ops",
        "lat": -20.606806987657848,
        "lon": 149.61278569716103,
        "alt_km": 19113.783881270818,
        "timestamp": "2025-12-22T20:43:46.109792+00:00",
        "meta_object_name": "COSMOS 2500 (755)",
        "meta_object_id": "2014-032A",
        "meta_epoch": "2025-12-21T04:35:55.026240",
        "meta_mean_motion": 2.13106227,
        "meta_eccentricity": 0.00077299,
        "meta_inclination": 65.3386,
        "meta_ra_of_asc_node": 319.7453,
        "meta_arg_of_pericenter": 219.3736,
        "meta_mean_anomaly": 140.5635,
        "meta_ephemeris_type": 0,
        "meta_classification_type": "U",
        "meta_norad_cat_id": 40001,
        "meta_element_set_no": 999,
        "meta_rev_at_epoch": 8966,
        "meta_bstar": 0,
        "meta_mean_motion_dot": -4.7e-07,
        "meta_mean_motion_ddot": 0,
        "tle_line1": "1 40001U 14032A   25355.19160910 -.00000047  00000+0  00000+0 0  9992",
        "tle_line2": "2 40001  65.3386 319.7453 0007729 219.3736 140.5635  2.13106227 89663"
      },
      "geometry": {
        "type": "Point",
        "coordinates": [
          149.61278569716103,
          -20.606806987657848
        ]
      }
    },
    {
      "type": "Feature",
      "properties": {
        "norad_id": 40315,
        "name": "COSMOS 2501 (702K)",
        "group": "glo-ops",
        "lat": 3.0789899034094166,
        "lon": -161.9899555924644,
        "alt_km": 19178.015691002918,
        "timestamp": "2025-12-22T20:43:46.109803+00:00",
        "meta_object_name": "COSMOS 2501 (702K)",
        "meta_object_id": "2014-075A",
        "meta_epoch": "2025-12-19T02:31:27.452640",
        "meta_mean_motion": 2.13101513,
        "meta_eccentricity": 0.0020099,
        "meta_inclination": 63.6146,
        "meta_ra_of_asc_node": 196.6046,
        "meta_arg_of_pericenter": 204.1838,
        "meta_mean_anomaly": 155.7988,
        "meta_ephemeris_type": 0,
        "meta_classification_type": "U",
        "meta_norad_cat_id": 40315,
        "meta_element_set_no": 999,
        "meta_rev_at_epoch": 8601,
        "meta_bstar": 0,
        "meta_mean_motion_dot": 1.06e-06,
        "meta_mean_motion_ddot": 0,
        "tle_line1": "1 40315U 14075A   25353.10517885  .00000106  00000+0  00000+0 0  9998",
        "tle_line2": "2 40315  63.6146 196.6046 0020099 204.1838 155.7988  2.13101513 86014"
      },
      "geometry": {
        "type": "Point",
        "coordinates": [
          -161.9899555924644,
          3.0789899034094166
        ]
      }
    }
  ]
}